{
  "type": "FeatureCollection",
  "features": [
    {
      "type": "Feature",
      "properties": {
        "norad_id": 34070,
        "name": "COSMOS 2251 DEB",
        "group": "cosmos-2251-debris",
        "lat": 57.34339171760039,
        "lon": -107.03234532690897,
        "alt_km": 633.6223494440674,
        "timestamp": "2025-12-21T05:44:51.981070+00:00",
        "meta_object_name": "COSMOS 2251 DEB",
        "meta_object_id": "1993-036KH",
        "meta_epoch": "2025-12-20T18:23:42.272736",
        "meta_mean_motion": 14.77271735,
        "meta_eccentricity": 0.00181745,
        "meta_inclination": 74.0009,
        "meta_ra_of_asc_node": 100.4913,
        "meta_arg_of_pericenter": 216.9904,
        "meta_mean_anomaly": 267.4014,
        "meta_ephemeris_type": 0,
        "meta_classification_type": "U",
        "meta_norad_cat_id": 34070,
        "meta_element_set_no": 999,
        "meta_rev_at_epoch": 88729,
        "meta_bstar": 0.0014117222,
        "meta_mean_motion_dot": 0.00010023,
        "meta_mean_motion_ddot": 0,
        "tle_line1": "1 34070U 93036KH  25354.76646149  .00010023  00000+0  14117-2 0  9998",
        "tle_line2": "2 34070  74.0009 100.4913 0018174 216.9904 267.4014 14.77271735887298"
      },
      "geometry": {
        "type": "Point",
        "coordinates": [
          -107.03234532690897,
          57.34339171760039
        ]
      }
    },
    {
      "type": "Feature",
      "properties": {
        "norad_id": 34114,
        "name": "COSMOS 2251 DEB",
        "group": "cosmos-2251-debris",
        "lat": 50.58869170220096,
        "lon": 48.08109973294118,
        "alt_km": 671.4479876144796,
        "timestamp": "2025-12-21T05:44:51.981080+00:00",
        "meta_object_name": "COSMOS 2251 DEB",
        "meta_object_id": "1993-036KK",
        "meta_epoch": "2025-12-20T20:24:52.373088",
        "meta_mean_motion": 14.56474222,
        "meta_eccentricity": 0.00478756,
        "meta_inclination": 74.0582,
        "meta_ra_of_asc_node": 28.4624,
        "meta_arg_of_pericenter": 20.252,
        "meta_mean_anomaly": 154.77,
        "meta_ephemeris_type": 0,
        "meta_classification_type": "U",
        "meta_norad_cat_id": 34114,
        "meta_element_set_no": 999,
        "meta_rev_at_epoch": 87919,
        "meta_bstar": 0.00096703616,
        "meta_mean_motion_dot": 4.339e-05,
        "meta_mean_motion_ddot": 0,
        "tle_line1": "1 34114U 93036KK  25354.85060617  .00004339  00000+0  96704-3 0  9993",
        "tle_line2": "2 34114  74.0582  28.4624 0047875  20.2520 154.7700 14.56474222879194"
      },
      "geometry": {
        "type": "Point",
        "coordinates": [
          48.08109973294118,
          50.58869170220096
        ]
      }
    },
    {
      "type": "Feature",
      "properties": {
        "norad_id": 34115,
        "name": "COSMOS 2251 DEB",
        "group": "cosmos-2251-debris",
        "lat": 25.76722795138544,
        "lon": 37.223911537490324,
        "alt_km": 635.2509074670634,
        "timestamp": "2025-12-21T05:44:51.981090+00:00",
        "meta_object_name": "COSMOS 2251 DEB",
        "meta_object_id": "1993-036KL",
        "meta_epoch": "2025-12-20T17:42:06.598368",
        "meta_mean_motion": 14.79584884,
        "meta_eccentricity": 0.00288623,
        "meta_inclination": 74.0058,
        "meta_ra_of_asc_node": 226.1718,
        "meta_arg_of_pericenter": 47.278,
        "meta_mean_anomaly": 313.0818,
        "meta_ephemeris_type": 0,
        "meta_classification_type": "U",
        "meta_norad_cat_id": 34115,
        "meta_element_set_no": 999,
        "meta_rev_at_epoch": 89530,
        "meta_bstar": 0.00051805015,
        "meta_mean_motion_dot": 3.875e-05,
        "meta_mean_motion_ddot": 0,
        "tle_line1": "1 34115U 93036KL  25354.73757637  .00003875  00000+0  51805-3 0  9993",
        "tle_line2": "2 34115  74.0058 226.1718 0028862  47.2780 313.0818 14.79584884895308"
      },
      "geometry": {
        "type": "Point",
        "coordinates": [
          37.223911537490324,
          25.76722795138544
        ]
      }
    },
    {
      "type": "Feature",
      "properties": {
        "norad_id": 34116,
        "name": "COSMOS 2251 DEB",
        "group": "cosmos-2251-debris",
        "lat": 23.454752454925835,
        "lon": 173.87619627091232,
        "alt_km": 721.5625571755654,
        "timestamp": "2025-12-21T05:44:51.981100+00:00",
        "meta_object_name": "COSMOS 2251 DEB",
        "meta_object_id": "1993-036KM",
        "meta_epoch": "2025-12-20T21:56:14.931744",
        "meta_mean_motion": 14.53019784,
        "meta_eccentricity": 0.00118493,
        "meta_inclination": 74.0395,
        "meta_ra_of_asc_node": 167.3571,
        "meta_arg_of_pericenter": 243.4697,
        "meta_mean_anomaly": 239.4227,
        "meta_ephemeris_type": 0,
        "meta_classification_type": "U",
        "meta_norad_cat_id": 34116,
        "meta_element_set_no": 999,
        "meta_rev_at_epoch": 88605,
        "meta_bstar": 0.00054560329,
        "meta_mean_motion_dot": 2.227e-05,
        "meta_mean_motion_ddot": 0,
        "tle_line1": "1 34116U 93036KM  25354.91406171  .00002227  00000+0  54560-3 0  9999",
        "tle_line2": "2 34116  74.0395 167.3571 0011849 243.4697 239.4227 14.53019784886051"
      },
      "geometry": {
        "type": "Point",
        "coordinates": [
          173.87619627091232,
          23.454752454925835
        ]
      }
    },
    {
      "type": "Feature",
      "properties": {
        "norad_id": 34117,
        "name": "COSMOS 2251 DEB",
        "group": "cosmos-2251-debris",
        "lat": 4.031532983529569,
        "lon": 146.96899989484416,
        "alt_km": 787.3040034313535,
        "timestamp": "2025-12-21T05:44:51.981111+00:00",
        "meta_object_name": "COSMOS 2251 DEB",
        "meta_object_id": "1993-036KN",
        "meta_epoch": "2025-12-20T08:55:52.413888",
        "meta_mean_motion": 14.40039498,
        "meta_eccentricity": 0.00548478,
        "meta_inclination": 74.0395,
        "meta_ra_of_asc_node": 329.7266,
        "meta_arg_of_pericenter": 43.9351,
        "meta_mean_anomaly": 316.6145,
        "meta_ephemeris_type": 0,
        "meta_classification_type": "U",
        "meta_norad_cat_id": 34117,
        "meta_element_set_no": 999,
        "meta_rev_at_epoch": 88233,
        "meta_bstar": 0.00048420631,
        "meta_mean_motion_dot": 1.527e-05,
        "meta_mean_motion_ddot": 0,
        "tle_line1": "1 34117U 93036KN  25354.37213442  .00001527  00000+0  48421-3 0  9998",
        "tle_line2": "2 34117  74.0395 329.7266 0054847  43.9351 316.6145 14.40039498882336"
      },
      "geometry": {
        "type": "Point",
        "coordinates": [
          146.96899989484416,
          4.031532983529569
        ]
      }
    },
    {
      "type": "Feature",
      "properties": {
        "norad_id": 34118,
        "name": "COSMOS 2251 DEB",
        "group": "cosmos-2251-debris",
        "lat": 71.3861746607427,
        "lon": -6.622632173549399,
        "alt_km": 545.1316403140927,
        "timestamp": "2025-12-21T05:44:51.981121+00:00",
        "meta_object_name": "COSMOS 2251 DEB",
        "meta_object_id": "1993-036KP",
        "meta_epoch": "2025-12-20T22:56:35.628288",
        "meta_mean_motion": 14.94197012,
        "meta_eccentricity": 0.00600987,
        "meta_inclination": 73.9516,
        "meta_ra_of_asc_node": 232.6738,
        "meta_arg_of_pericenter": 60.8217,
        "meta_mean_anomaly": 313.805,
        "meta_ephemeris_type": 0,
        "meta_classification_type": "U",
        "meta_norad_cat_id": 34118,
        "meta_element_set_no": 999,
        "meta_rev_at_epoch": 89299,
        "meta_bstar": 0.00095627163,
        "meta_mean_motion_dot": 0.00010595,
        "meta_mean_motion_ddot": 0,
        "tle_line1": "1 34118U 93036KP  25354.95596792  .00010595  00000+0  95627-3 0  9990",
        "tle_line2": "2 34118  73.9516 232.6738 0060098  60.8217 313.8050 14.94197012892993"
      },
      "geometry": {
        "type": "Point",
        "coordinates": [
          -6.622632173549399,
          71.3861746607427
        ]
      }
    },
    {
      "type": "Feature",
      "properties": {
        "norad_id": 34120,
        "name": "COSMOS 2251 DEB",
        "group": "cosmos-2251-debris",
        "lat": 62.40521151134245,
        "lon": -11.821479886210437,
        "alt_km": 878.9265507680875,
        "timestamp": "2025-12-21T05:44:51.981131+00:00",
        "meta_object_name": "COSMOS 2251 DEB",
        "meta_object_id": "1993-036KR",
        "meta_epoch": "2025-12-20T15:45:16.401312",
        "meta_mean_motion": 13.98692111,
        "meta_eccentricity": 0.0182297,
        "meta_inclination": 73.9903,
        "meta_ra_of_asc_node": 202.5078,
        "meta_arg_of_pericenter": 28.4342,
        "meta_mean_anomaly": 27.5242,
        "meta_ephemeris_type": 0,
        "meta_classification_type": "U",
        "meta_norad_cat_id": 34120,
        "meta_element_set_no": 999,
        "meta_rev_at_epoch": 86091,
        "meta_bstar": 0.00023534,
        "meta_mean_motion_dot": 3.66e-06,
        "meta_mean_motion_ddot": 0,
        "tle_line1": "1 34120U 93036KR  25354.65643983  .00000366  00000+0  23534-3 0  9998",
        "tle_line2": "2 34120  73.9903 202.5078 0182297  28.4342  27.5242 13.98692111860916"
      },
      "geometry": {
        "type": "Point",
        "coordinates": [
          -11.821479886210437,
          62.40521151134245
        ]
      }
    }
  ]
}